{
  "type": "FeatureCollection",
  "name": "HS2 Euston Tunnel \u2013 Queen's Park straight grey dotted reference",
  "features": [
    {
      "type": "Feature",
      "properties": {
        "name": "HS2 Euston Tunnel \u2013 Queen's Park straight reference",
        "source": "Straight trace based on the grey dotted tunnel line visible in the user-supplied detailed HS2/OSM screenshots; official HS2 material cross-checked for tunnel context.",
        "status": "user-reference-grey-dotted-straight-trace",
        "note": "Straight reference trace of the grey dotted tunnel line identified by the user. For visual/property screening only; not survey/legal geometry."
      },
      "geometry": {
        "type": "LineString",
        "coordinates": [
          [
            -0.2192,
            51.53095
          ],
          [
            -0.1998,
            51.53362
          ]
        ]
      }
    }
  ]
}
